ONEWEB-0033             
1 45142U 20008M   26009.61103797  .00000573  00000+0  16053-2 0  9998
2 45142  87.8773  67.8964 0001243 108.0339 252.0924 13.10371682287443
ONEWEB-0035             
1 45143U 20008N   26009.64172847 -.00000633  00000+0 -18494-2 0  9994
2 45143  87.8777  67.8893 0001655 101.9236 258.2077 13.10372624287178
ONEWEB-0036             
1 45144U 20008P   26009.63177053 -.00000309  00000+0 -92123-3 0  9990
2 45144  87.8781  67.8521 0002061 100.5305 259.6054 13.10371447287606
ONEWEB-0038             
1 45145U 20008Q   26009.62418215  .00000154  00000+0  39940-3 0  9992
2 45145  87.8836  52.6306 0001891  41.9824 318.1449 13.11419378289546
ONEWEB-0039             
1 45146U 20008R   26009.61435902  .00000549  00000+0  15367-2 0  9998
2 45146  87.8787  67.8724 0002279  92.6870 267.4518 13.10371800287399
ONEWEB-0040             
1 45147U 20008S   26009.60772489  .00000689  00000+0  19363-2 0  9997
2 45147  87.8778  67.8963 0001786  97.6427 262.4904 13.10373866287095
ONEWEB-0043             
1 45149U 20008U   26009.60938137  .00000623  00000+0  17473-2 0  9991
2 45149  87.8778  67.8774 0002313  93.1133 267.0259 13.10373188287416
ONEWEB-0044             
1 45150U 20008V   26009.63758054 -.00000534  00000+0 -15661-2 0  9994
2 45150  87.8782  67.8645 0002037  98.9868 261.1490 13.10371150287713
